CCSDS_OMM_VERS = 2.0
CREATION_DATE  = 
ORIGINATOR     = 

OBJECT_NAME    = IDEFIX & ARIANE 42P R/B
OBJECT_ID      = 2002-021B
CENTER_NAME    = EARTH
REF_FRAME      = TEME
TIME_SYSTEM    = UTC
MEAN_ELEMENT_THEORY = SGP/SGP4

EPOCH          = 2025-12-20T18:20:34.113408
MEAN_MOTION    = 14.30955531
ECCENTRICITY   = .00128714
INCLINATION    = 98.5797
RA_OF_ASC_NODE = 289.3513
ARG_OF_PERICENTER = 62.0508
MEAN_ANOMALY   = 298.1977

EPHEMERIS_TYPE = 0
CLASSIFICATION_TYPE = U
NORAD_CAT_ID   = 27422
ELEMENT_SET_NO = 999
REV_AT_EPOCH   = 23273
BSTAR          = .89725768E-4
MEAN_MOTION_DOT = .192E-5
MEAN_MOTION_DDOT = 0

CCSDS_OMM_VERS = 2.0
CREATION_DATE  = 
ORIGINATOR     = 

OBJECT_NAME    = AQUA
OBJECT_ID      = 2002-022A
CENTER_NAME    = EARTH
REF_FRAME      = TEME
TIME_SYSTEM    = UTC
MEAN_ELEMENT_THEORY = SGP/SGP4

EPOCH          = 2025-12-20T21:44:41.124192
MEAN_MOTION    = 14.61819722
ECCENTRICITY   = .00014178
INCLINATION    = 98.4047
RA_OF_ASC_NODE = 315.9181
ARG_OF_PERICENTER = 110.6839
MEAN_ANOMALY   = 325.0971

EPHEMERIS_TYPE = 0
CLASSIFICATION_TYPE = U
NORAD_CAT_ID   = 27424
ELEMENT_SET_NO = 999
REV_AT_EPOCH   = 25722
BSTAR          = .13305992E-3
MEAN_MOTION_DOT = .615E-5
MEAN_MOTION_DDOT = 0

CCSDS_OMM_VERS = 2.0
CREATION_DATE  = 
ORIGINATOR     = 

OBJECT_NAME    = CZ-4B R/B
OBJECT_ID      = 2002-024C
CENTER_NAME    = EARTH
REF_FRAME      = TEME
TIME_SYSTEM    = UTC
MEAN_ELEMENT_THEORY = SGP/SGP4

EPOCH          = 2025-12-20T22:38:54.485952
MEAN_MOTION    = 14.14529359
ECCENTRICITY   = .00492596
INCLINATION    = 98.8987
RA_OF_ASC_NODE = 43.6864
ARG_OF_PERICENTER = 246.1599
MEAN_ANOMALY   = 287.9118

EPHEMERIS_TYPE = 0
CLASSIFICATION_TYPE = U
NORAD_CAT_ID   = 27432
ELEMENT_SET_NO = 999
REV_AT_EPOCH   = 21810
BSTAR          = .42444107E-4
MEAN_MOTION_DOT = .37E-6
MEAN_MOTION_DDOT = 0

CCSDS_OMM_VERS = 2.0
CREATION_DATE  = 
ORIGINATOR     = 

OBJECT_NAME    = MIDORI II (ADEOS-II)
OBJECT_ID      = 2002-056A
CENTER_NAME    = EARTH
REF_FRAME      = TEME
TIME_SYSTEM    = UTC
MEAN_ELEMENT_THEORY = SGP/SGP4

EPOCH          = 2025-12-20T21:45:13.613184
MEAN_MOTION    = 14.29210583
ECCENTRICITY   = .00006078
INCLINATION    = 98.7649
RA_OF_ASC_NODE = 307.9060
ARG_OF_PERICENTER = 150.1626
MEAN_ANOMALY   = 209.9590

EPHEMERIS_TYPE = 0
CLASSIFICATION_TYPE = U
NORAD_CAT_ID   = 27597
ELEMENT_SET_NO = 999
REV_AT_EPOCH   = 19904
BSTAR          = .85045968E-4
MEAN_MOTION_DOT = .171E-5
MEAN_MOTION_DDOT = 0

CCSDS_OMM_VERS = 2.0
CREATION_DATE  = 
ORIGINATOR     = 

OBJECT_NAME    = H-2A R/B
OBJECT_ID      = 2002-056E
CENTER_NAME    = EARTH
REF_FRAME      = TEME
TIME_SYSTEM    = UTC
MEAN_ELEMENT_THEORY = SGP/SGP4

EPOCH          = 2025-12-20T22:00:18.405216
MEAN_MOTION    = 14.33682577
ECCENTRICITY   = .00711168
INCLINATION    = 98.3076
RA_OF_ASC_NODE = 313.3484
ARG_OF_PERICENTER = 37.1115
MEAN_ANOMALY   = 28.6228

EPHEMERIS_TYPE = 0
CLASSIFICATION_TYPE = U
NORAD_CAT_ID   = 27601
ELEMENT_SET_NO = 999
REV_AT_EPOCH   = 20282
BSTAR          = .10792747E-3
MEAN_MOTION_DOT = .267E-5
MEAN_MOTION_DDOT = 0

CCSDS_OMM_VERS = 2.0
CREATION_DATE  = 
ORIGINATOR     = 

OBJECT_NAME    = CZ-4B R/B
OBJECT_ID      = 2003-049C
CENTER_NAME    = EARTH
REF_FRAME      = TEME
TIME_SYSTEM    = UTC
MEAN_ELEMENT_THEORY = SGP/SGP4

EPOCH          = 2025-12-20T22:00:41.338368
MEAN_MOTION    = 14.54916495
ECCENTRICITY   = .00493197
INCLINATION    = 98.6792
RA_OF_ASC_NODE = 341.7901
ARG_OF_PERICENTER = 111.5785
MEAN_ANOMALY   = 249.0677

EPHEMERIS_TYPE = 0
CLASSIFICATION_TYPE = U
NORAD_CAT_ID   = 28059
ELEMENT_SET_NO = 999
REV_AT_EPOCH   = 17514
BSTAR          = .7720771E-4
MEAN_MOTION_DOT = .286E-5
MEAN_MOTION_DDOT = 0

CCSDS_OMM_VERS = 2.0
CREATION_DATE  = 
ORIGINATOR     = 

OBJECT_NAME    = CZ-2C R/B
OBJECT_ID      = 2004-012C
CENTER_NAME    = EARTH
REF_FRAME      = TEME
TIME_SYSTEM    = UTC
MEAN_ELEMENT_THEORY = SGP/SGP4

EPOCH          = 2025-12-20T21:47:06.115488
MEAN_MOTION    = 15.56083586
ECCENTRICITY   = .00165083
INCLINATION    = 97.7408
RA_OF_ASC_NODE = 48.2069
ARG_OF_PERICENTER = 238.4104
MEAN_ANOMALY   = 121.5539

EPHEMERIS_TYPE = 0
CLASSIFICATION_TYPE = U
NORAD_CAT_ID   = 28222
ELEMENT_SET_NO = 999
REV_AT_EPOCH   = 19199
BSTAR          = .3944982E-3
MEAN_MOTION_DOT = .27629E-3
MEAN_MOTION_DDOT = 0

CCSDS_OMM_VERS = 2.0
CREATION_DATE  = 
ORIGINATOR     = 

OBJECT_NAME    = SL-16 R/B
OBJECT_ID      = 2004-021B
CENTER_NAME    = EARTH
REF_FRAME      = TEME
TIME_SYSTEM    = UTC
MEAN_ELEMENT_THEORY = SGP/SGP4

EPOCH          = 2025-12-20T19:46:58.395936
MEAN_MOTION    = 14.14578715
ECCENTRICITY   = .00048568
INCLINATION    = 71.0006
RA_OF_ASC_NODE = 37.9997
ARG_OF_PERICENTER = 186.5608
MEAN_ANOMALY   = 173.5452

EPHEMERIS_TYPE = 0
CLASSIFICATION_TYPE = U
NORAD_CAT_ID   = 28353
ELEMENT_SET_NO = 999
REV_AT_EPOCH   = 11168
BSTAR          = .1016879E-5
MEAN_MOTION_DOT = -.46E-6
MEAN_MOTION_DDOT = 0

CCSDS_OMM_VERS = 2.0
CREATION_DATE  = 
ORIGINATOR     = 

OBJECT_NAME    = CZ-4B R/B
OBJECT_ID      = 2004-035C
CENTER_NAME    = EARTH
REF_FRAME      = TEME
TIME_SYSTEM    = UTC
MEAN_ELEMENT_THEORY = SGP/SGP4

EPOCH          = 2025-12-20T19:34:46.580160
MEAN_MOTION    = 15.27491777
ECCENTRICITY   = .00315818
INCLINATION    = 97.3592
RA_OF_ASC_NODE = 25.0524
ARG_OF_PERICENTER = 247.3649
MEAN_ANOMALY   = 112.4249

EPHEMERIS_TYPE = 0
CLASSIFICATION_TYPE = U
NORAD_CAT_ID   = 28415
ELEMENT_SET_NO = 999
REV_AT_EPOCH   = 16786
BSTAR          = .20373194E-3
MEAN_MOTION_DOT = .5483E-4
MEAN_MOTION_DDOT = 0

CCSDS_OMM_VERS = 2.0
CREATION_DATE  = 
ORIGINATOR     = 

OBJECT_NAME    = CZ-2C R/B
OBJECT_ID      = 2004-046B
CENTER_NAME    = EARTH
REF_FRAME      = TEME
TIME_SYSTEM    = UTC
MEAN_ELEMENT_THEORY = SGP/SGP4

EPOCH          = 2025-12-20T16:07:48.749664
MEAN_MOTION    = 14.26944766
ECCENTRICITY   = .0140131
INCLINATION    = 98.1995
RA_OF_ASC_NODE = 269.5570
ARG_OF_PERICENTER = 28.9859
MEAN_ANOMALY   = 331.9013

EPHEMERIS_TYPE = 0
CLASSIFICATION_TYPE = U
NORAD_CAT_ID   = 28480
ELEMENT_SET_NO = 999
REV_AT_EPOCH   = 9723
BSTAR          = .73379199E-4
MEAN_MOTION_DOT = .157E-5
MEAN_MOTION_DDOT = 0

CCSDS_OMM_VERS = 2.0
CREATION_DATE  = 
ORIGINATOR     = 

OBJECT_NAME    = ARIANE 5 R/B
OBJECT_ID      = 2004-049H
CENTER_NAME    = EARTH
REF_FRAME      = TEME
TIME_SYSTEM    = UTC
MEAN_ELEMENT_THEORY = SGP/SGP4

EPOCH          = 2025-12-20T20:57:00.741600
MEAN_MOTION    = 14.85030289
ECCENTRICITY   = .00833677
INCLINATION    = 98.2526
RA_OF_ASC_NODE = 155.4461
ARG_OF_PERICENTER = 246.2158
MEAN_ANOMALY   = 113.0297

EPHEMERIS_TYPE = 0
CLASSIFICATION_TYPE = U
NORAD_CAT_ID   = 28499
ELEMENT_SET_NO = 999
REV_AT_EPOCH   = 13409
BSTAR          = .98310013E-4
MEAN_MOTION_DOT = .827E-5
MEAN_MOTION_DDOT = 0

CCSDS_OMM_VERS = 2.0
CREATION_DATE  = 
ORIGINATOR     = 

OBJECT_NAME    = CZ-2D R/B
OBJECT_ID      = 2005-024B
CENTER_NAME    = EARTH
REF_FRAME      = TEME
TIME_SYSTEM    = UTC
MEAN_ELEMENT_THEORY = SGP/SGP4

EPOCH          = 2025-12-20T18:34:33.968928
MEAN_MOTION    = 15.53618981
ECCENTRICITY   = .00041706
INCLINATION    = 97.3620
RA_OF_ASC_NODE = 2.4340
ARG_OF_PERICENTER = 336.4208
MEAN_ANOMALY   = 23.6853

EPHEMERIS_TYPE = 0
CLASSIFICATION_TYPE = U
NORAD_CAT_ID   = 28738
ELEMENT_SET_NO = 999
REV_AT_EPOCH   = 12750
BSTAR          = .32564082E-3
MEAN_MOTION_DOT = .20693E-3
MEAN_MOTION_DDOT = 0

