IDEFIX & ARIANE 42P R/B 
1 27422U 02021B   25354.76428372  .00000192  00000+0  89726-4 0  9997
2 27422  98.5797 289.3513 0012871  62.0508 298.1977 14.30955531232731
AQUA                    
1 27424U 02022A   25354.90603153  .00000615  00000+0  13306-3 0  9998
2 27424  98.4047 315.9181 0001417 110.6839 325.0971 14.61819722257228
CZ-4B R/B               
1 27432U 02024C   25354.94368618  .00000037  00000+0  42444-4 0  9991
2 27432  98.8987  43.6864 0049259 246.1599 287.9118 14.14529359218106
MIDORI II (ADEOS-II)    
1 27597U 02056A   25354.90640756  .00000171  00000+0  85046-4 0  9994
2 27597  98.7649 307.9060 0000607 150.1626 209.9590 14.29210583199046
H-2A R/B                
1 27601U 02056E   25354.91687969  .00000267  00000+0  10793-3 0  9990
2 27601  98.3076 313.3484 0071116  37.1115  28.6228 14.33682577202829
CZ-4B R/B               
1 28059U 03049C   25354.91714512  .00000286  00000+0  77208-4 0  9992
2 28059  98.6792 341.7901 0049319 111.5785 249.0677 14.54916495175147
CZ-2C R/B               
1 28222U 04012C   25354.90770967  .00027629  00000+0  39450-3 0  9996
2 28222  97.7408  48.2069 0016508 238.4104 121.5539 15.56083586191996
SL-16 R/B               
1 28353U 04021B   25354.82428699 -.00000046  00000+0  10169-5 0  9997
2 28353  71.0006  37.9997 0004856 186.5608 173.5452 14.14578715111685
CZ-4B R/B               
1 28415U 04035C   25354.81581690  .00005483  00000+0  20373-3 0  9996
2 28415  97.3592  25.0524 0031581 247.3649 112.4249 15.27491777167869
CZ-2C R/B               
1 28480U 04046B   25354.67209201  .00000157  00000+0  73379-4 0  9997
2 28480  98.1995 269.5570 0140131  28.9859 331.9013 14.26944766 97230
ARIANE 5 R/B            
1 28499U 04049H   25354.87292525  .00000827  00000+0  98310-4 0  9999
2 28499  98.2526 155.4461 0083367 246.2158 113.0297 14.85030289134097
CZ-2D R/B               
1 28738U 05024B   25354.77400427  .00020693  00000+0  32564-3 0  9991
2 28738  97.3620   2.4340 0004170 336.4208  23.6853 15.53618981127507
